ONEWEB-0055             
1 45443U 20020V   20114.91667824  .00057353  00000-0  22121-2 0  9998
2 45443  87.4218 127.1683 0027176 166.9203  15.6938 15.25728553  5055
ONEWEB-0093             
1 45444U 20020W   20114.91667824  .00051447  00000-0  16783-2 0  9994
2 45444  87.4017 127.1663 0027661 167.2459  57.4345 15.31209634  5054
ONEWEB-0029             
1 45445U 20020X   20114.91667824  .00064291  00000-0  26926-2 0  9996
2 45445  87.4232 127.1878 0028151 167.7237 289.1291 15.22916019  5052
ONEWEB-0068             
1 45446U 20020Y   20114.91667824 -.00067514  00000-0 -29789-2 0  9990
2 45446  87.4259 127.2004 0028660 170.0285 251.7470 15.21753383  5055
ONEWEB-0046             
1 45447U 20020Z   20114.91667824  .00006458  00000-0  29429-3 0  9991
2 45447  87.4308 127.1982 0028711 170.6584 206.5805 15.20095535  5057
ONEWEB-0063             
1 45448U 20020AA  20114.91667824 -.00070297  00000-0 -29141-2 0  9996
2 45448  87.4219 127.2016 0028194 172.7797 262.7971 15.23883978  5059
ONEWEB-0019             
1 45449U 20020AB  20114.91667824  .00057258  00000-0  42411-2 0  9992
2 45449  87.4718 127.3921 0028408 173.9080 117.8223 15.02552301  5023
ONEWEB-0094             
1 45450U 20020AC  20114.91667824  .00056250  00000-0  26282-2 0  9993
2 45450  87.4244 127.2210 0027638 175.3223 108.5245 15.19225499  5044
ONEWEB-0087             
1 45451U 20020AD  20114.91667824  .00048530  00000-0  35397-2 0  9993
2 45451  87.4464 127.3354 0027028 176.7240 256.9658 15.03205197  5037
ONEWEB-0082             
1 45452U 20020AE  20114.91667824 -.00046264  00000-0 -23449-2 0  9993
2 45452  87.4186 127.2300 0027335 177.2773  29.1336 15.16922979  5049
ONEWEB-0050             
1 45453U 20020AF  20114.91667824  .00061301  00000-0  24966-2 0  9996
2 45453  87.4484 127.2127 0026199 176.1938 186.1701 15.23919409  5059
ONEWEB-0034             
1 45454U 20020AG  20114.91667824 -.00054672  00000-0 -28267-2 0  9990
2 45454  87.4208 127.2363 0025897 175.5101 348.5769 15.16295813  5040
ONEWEB-0060             
1 45455U 20020AH  20114.91667824  .00067791  00000-0  66712-2 0  9992
2 45455  87.4701 127.4899 0024561 175.9662 289.3649 14.91541118  5018
ONEWEB-0086             
1 45456U 20020AJ  20114.58334491 -.00031485  00000-0 -28408-2 0  9990
2 45456  87.4578 127.5629 0024414 175.7535 357.0938 14.95575934  4961
ONEWEB-0088             
1 45457U 20020AK  20114.91667824 -.00063537  00000-0 -65568-2 0  9998
2 45457  87.4474 127.4710 0023484 174.7724 194.7504 14.90430991  5012
